SatCatId,ObjectName,LaunchYear,OrbitalPeriod,LaunchMass,StatusCode,Status,UcsData,OrbitClass,LaunchSiteCountry,Owner,UseType,Purpose,LaunchVehicleClass,TLE1,TLE2
39765,COSMOS 2499 (RS-47),2014,112.24,-1.0,-,Inactive,0,LEO,Russia,Russia/USSR,Unknown,Unknown,Unknown,1 39765U 14028E   22277.57772314  .00000032  00000+0  87751-4 0  9997,2 39765  82.4379  84.4969 0229717 294.7002  63.0342 12.83011608391716
39766,ALOS-2,2014,97.33,2120.0,+,Active,1,LEO,Japan,Japan,Government,Earth Observation,H2A,1 39766U 14029A   22277.56429456  .00000008  00000+0  79948-5 0  9997,2 39766  97.9221  13.1296 0001442  92.1470 267.9916 14.79472507451768
39767,UNIFORM 1,2014,96.98,50.0,+,Active,1,LEO,Japan,Japan,Civil,Earth Observation,H2A,1 39767U 14029B   22277.25437893  .00001693  00000+0  20566-3 0  9999,2 39767  97.8371   8.2316 0006970  92.8993 267.3019 14.84802307452928
39768,SOCRATES,2014,96.95,48.0,+,Active,1,LEO,Japan,Japan,Commercial,Technology Development,H2A,1 39768U 14029C   22277.26986934  .00001481  00000+0  17870-3 0  9995,2 39768  97.8683  14.3370 0007874 111.7951 248.4116 14.85284325453117
39769,RISING 2,2014,97.12,41.0,+,Active,1,LEO,Japan,Japan,Civil,Earth Observation,H2A,1 39769U 14029D   22277.59978884  .00000877  00000+0  11511-3 0  9991,2 39769  97.7937 358.2931 0005668  86.5882 273.5989 14.82699320452504
39770,SPROUT,2014,96.51,7.1,+,Active,1,LEO,Japan,Japan,Civil,Technology Development,H2A,1 39770U 14029E   22277.60498374  .00009094  00000+0  89869-3 0  9997,2 39770  97.9490  35.3575 0009071  84.0558 276.1785 14.92121726453936
39773,EUTELSAT 3B,2014,1436.09,5967.0,+,Active,1,GEO,Sea Launch Platform,EUTELSAT,Commercial,Communications,Zenit,1 39773U 14030A   22277.27604587  .00000007  00000+0  00000+0 0  9991,2 39773   0.0652 358.0976 0005773 194.3308 283.0142  1.00272664 30519
40001,COSMOS 2500 [GLONASS-M],2014,675.73,1415.0,+,Active,1,MEO,Russia,Russia/USSR,Commercial/Military,Navigation (Global or Regional Positioning),Soyuz,1 40001U 14032A   22277.16686433 -.00000077  00000+0  00000+0 0  9995,2 40001  65.7717 359.3551 0008000 197.2490 202.4643  2.13102435 64643
40010,KAZEOSAT 2,2014,97.16,185.0,+,Active,1,LEO,Russia,Kazakhstan,Government,Earth Observation,Dnepr,1 40010U 14033A   22277.61298246  .00000328  00000+0  47611-4 0  9999,2 40010  97.7047 158.9099 0015954  82.8183 277.4856 14.82060902448610
40011,HODOYOSHI-4,2014,97.18,60.0,+,Active,1,LEO,Russia,Japan,Government,Technology Development,Dnepr,1 40011U 14033B   22277.57902464  .00000934  00000+0  12387-3 0  9993,2 40011  97.6598 146.2156 0028005  80.9169 279.5215 14.81810507448254
40012,UNISAT-6,2014,97.62,-1.0,+,Active,0,LEO,Russia,Italy,Unknown,Unknown,Atlas,1 40012U 14033C   22277.46625516  .00003354  00000+0  49073-3 0  9993,2 40012  97.6635  99.6387 0057478 164.6101 195.6874 14.75159887446051
40013,DEIMOS-2,2014,96.94,310.0,+,Active,1,LEO,Russia,Spain,Government,Earth Observation,Dnepr,1 40013U 14033D   22277.56111635  .00001425  00000+0  17104-3 0  9994,2 40013  97.7452 171.8441 0002529  95.7124 264.4395 14.85524849449398
40014,BUGSAT-1 (TITA),2014,96.19,25.0,+,Active,1,LEO,Russia,Argentina,Commercial,Technology Development,Dnepr,1 40014U 14033E   22277.56264604  .00003336  00000+0  29193-3 0  9994,2 40014  98.1459 280.4719 0031609  39.1263 321.2245 14.97090278452468
40015,HODOYOSHI-3,2014,97.36,60.0,+,Active,1,LEO,Russia,Japan,Government,Technology Development,Dnepr,1 40015U 14033F   22277.53276543  .00000967  00000+0  13587-3 0  9994,2 40015  97.6291 126.0093 0038081 106.3239 254.2166 14.79016155447438
40016,SAUDISAT 4,2014,97.58,-1.0,+,Active,0,LEO,Russia,Saudi Arabia,Unknown,Unknown,Delta,1 40016U 14033G   22277.47472675  .00000916  00000+0  13863-3 0  9993,2 40016  97.6392 106.3282 0048766 146.2739 214.1591 14.75643911446473
40017,TABLETSAT-AURORA,2014,96.29,-1.0,-,Inactive,0,LEO,Russia,Russia/USSR,Unknown,Unknown,Falcon,1 40017U 14033H   22277.70768725  .00003466  00000+0  31752-3 0  9994,2 40017  98.1315 263.4919 0023686  54.4174 305.9319 14.95432715451893
40018,APRIZESAT 9,2014,97.94,12.0,+,Active,1,LEO,Russia,USA,Commercial,Communications/Maritime Tracking,Dnepr,1 40018U 14033J   22277.42651947  .00001076  00000+0  17939-3 0  9997,2 40018  97.7263  82.2317 0070012 222.8807 136.6929 14.70349618444664
40019,APRIZESAT 10,2014,98.13,12.0,+,Active,1,LEO,Russia,USA,Commercial,Communications/Maritime Tracking,Dnepr,1 40019U 14033K   22277.39577310  .00000834  00000+0  14881-3 0  9999,2 40019  97.7827  72.0895 0082463 268.7256  90.4501 14.67381709443776
40020,BRITE-CA1 (TORONTO),2014,98.15,10.0,+,Active,1,LEO,Russia,Canada,Civil,Space Science,Dnepr,1 40020U 14033L   22277.40569257  .00001286  00000+0  22515-3 0  9999,2 40020  97.7931  70.9139 0085321 276.1426  83.0063 14.67158545443636
40021,DUCHIFAT-1,2014,96.42,-1.0,+,Active,0,LEO,Russia,Israel,Unknown,Unknown,Scout,1 40021U 14033M   22277.50491831  .00008121  00000+0  77488-3 0  9997,2 40021  98.0227 229.7818 0013698  46.3793 313.8560 14.93523713450972
40022,PACE,2014,96.62,-1.0,-,Inactive,0,LEO,Russia,Taiwan,Unknown,Unknown,Atlas,1 40022U 14033N   22277.44508610  .00005212  00000+0  54102-3 0  9991,2 40022  97.9653 214.9860 0014583  66.7268 293.5483 14.90311682450430
40023,FLOCK 1C-10,2014,96.46,-1.0,-,Inactive,0,LEO,Russia,USA,Unknown,Unknown,Dnepr,1 40023U 14033P   22277.53096004  .00008602  00000+0  83517-3 0  9999,2 40023  98.0077 225.2326 0013740  59.1919 301.0650 14.92812011450714
40024,NANOSATC-BR1,2014,96.5,-1.0,+,Active,0,LEO,Russia,Brazil,Unknown,Unknown,Unknown,1 40024U 14033Q   22277.53045945  .00007634  00000+0  75231-3 0  9996,2 40024  97.9932 222.5853 0013196  52.9574 307.2849 14.92261090450242
40025,QB50P1,2014,96.58,-1.0,+,Active,0,LEO,Russia,Belgium,Unknown,Unknown,Electron,1 40025U 14033R   22277.46786683  .00005341  00000+0  54585-3 0  9992,2 40025  97.9656 215.7711 0013610  61.7356 298.5234 14.90942405450008
40026,FLOCK 1C-7,2014,96.34,-1.0,-,Inactive,0,LEO,Russia,USA,Unknown,Unknown,Dnepr,1 40026U 14033S   22277.40883010  .00013754  00000+0  12704-2 0  9992,2 40026  98.0235 230.5891 0011808  52.0032 308.2252 14.94674570450399
40027,FLOCK 1C-1,2014,96.4,-1.0,-,Inactive,0,LEO,Russia,USA,Unknown,Unknown,Antares,1 40027U 14033T   22277.41499540  .00012818  00000+0  12095-2 0  9998,2 40027  98.0118 226.6270 0013535  56.6506 303.6007 14.93830074450212
40028,POPSAT-HIP-1,2014,96.6,-1.0,-,Inactive,0,LEO,Russia,Singapore,Unknown,Unknown,Proton,1 40028U 14033U   22277.73114971  .00003369  00000+0  34911-3 0  9999,2 40028  97.9756 217.3476 0015028  60.7628 299.5143 14.90639844450509
40029,FLOCK 1C-2,2014,96.42,-1.0,-,Inactive,0,LEO,Russia,USA,Unknown,Unknown,Dnepr,1 40029U 14033V   22277.29229577  .00011972  00000+0  11385-2 0  9998,2 40029  98.0093 225.8532 0014635  53.9882 306.2692 14.93529320450204
40030,DTUSAT-2,2014,96.62,-1.0,+,Active,0,LEO,Russia,Denmark,Unknown,Unknown,Delta,1 40030U 14033W   22277.49497646  .00005632  00000+0  58366-3 0  9993,2 40030  97.9402 210.7405 0013037  59.0682 301.1815 14.90359969449880
40031,FLOCK 1C-4,2014,96.51,-1.0,-,Inactive,0,LEO,Russia,USA,Unknown,Unknown,Dnepr,1 40031U 14033X   22277.45956561  .00007515  00000+0  74253-3 0  9991,2 40031  98.0086 224.7182 0015174  54.3059 305.9568 14.92138851450121
40032,QB50P2,2014,96.62,-1.0,+,Active,0,LEO,Russia,Belgium,Unknown,Unknown,Kosmos,1 40032U 14033Y   22277.46920240  .00004847  00000+0  50354-3 0  9999,2 40032  97.9405 210.7294 0012926  59.7829 300.4667 14.90335456449856
40033,FLOCK 1C-11,2014,96.34,-1.0,-,Inactive,0,LEO,Russia,USA,Unknown,Unknown,Dnepr,1 40033U 14033Z   22277.36684245  .00013774  00000+0  12712-2 0  9995,2 40033  98.0378 233.8067 0012646  41.2396 318.9777 14.94699206450472
40034,ANTELSAT,2014,97.6,-1.0,-,Inactive,0,LEO,Russia,Uruguay,Unknown,Unknown,Dnepr,1 40034U 14033AA  22277.49494806  .00003831  00000+0  55570-3 0  9995,2 40034  97.6633 100.8988 0057735 162.3610 197.9623 14.75437240445532
40035,FLOCK 1C-9,2014,96.41,-1.0,-,Inactive,0,LEO,Russia,USA,Unknown,Unknown,Dnepr,1 40035U 14033AB  22277.36407962  .00012422  00000+0  11789-2 0  9998,2 40035  98.0193 227.9718 0012643  48.0063 312.2230 14.93618252450257
40036,FLOCK 1C-6,2014,96.38,-1.0,-,Inactive,0,LEO,Russia,USA,Unknown,Unknown,Dnepr,1 40036U 14033AC  22277.39423937  .00012112  00000+0  11355-2 0  9997,2 40036  98.0235 229.3407 0012443  46.3699 313.8550 14.94113708450271
40037,PERSEUS-M2,2014,96.82,6.0,+,Active,1,LEO,Russia,Russia/USSR,Commercial,Communications,Dnepr,1 40037U 14033AD  22277.30435088  .00001873  00000+0  21351-3 0  9999,2 40037  97.8944 198.9085 0015749  81.6147 278.6854 14.87276575449302
40038,FLOCK 1C-5,2014,96.4,-1.0,-,Inactive,0,LEO,Russia,USA,Unknown,Unknown,Dnepr,1 40038U 14033AE  22277.42150056  .00012415  00000+0  11717-2 0  9990,2 40038  98.0186 228.1702 0014752  45.9424 314.3008 14.93817697450270
40039,PERSEUS-M1,2014,96.85,6.0,+,Active,1,LEO,Russia,Russia/USSR,Commercial,Communications,Dnepr,1 40039U 14033AF  22277.32787436  .00001812  00000+0  20871-3 0  9999,2 40039  97.8833 196.4888 0015587  80.6318 279.6659 14.86880495449185
40040,FLOCK 1C-8,2014,96.22,-1.0,-,Inactive,0,LEO,Russia,USA,Unknown,Unknown,Dnepr,1 40040U 14033AG  22277.42755644  .00014350  00000+0  12606-2 0  9995,2 40040  98.0601 241.8135 0012430  18.0893 342.0768 14.96629072450787
40041,FLOCK 1C-3,2014,96.36,-1.0,-,Inactive,0,LEO,Russia,USA,Unknown,Unknown,Dnepr,1 40041U 14033AH  22277.40409185  .00012671  00000+0  11792-2 0  9999,2 40041  98.0098 226.3176 0013911  48.5485 311.6926 14.94377509450175
40042,POLYITAN-1,2014,96.58,1.0,+,Active,1,LEO,Russia,Ukraine,Civil,Technology Development,Dnepr,1 40042U 14033AJ  22277.54480072  .00006641  00000+0  67479-3 0  9993,2 40042  97.9763 217.1950 0015606  53.6526 306.6130 14.91058344449907
40043,TIGRISAT,2014,97.61,1.0,+,Active,1,LEO,Russia,Iraq,Civil,Earth Observation,Dnepr,1 40043U 14033AK  22277.50758706  .00002646  00000+0  38753-3 0  9996,2 40043  97.6573 100.9098 0059365 161.8370 198.4980 14.75212800445700
